STARLINK-31658          
1 59513C 24073C   26078.19562500 -.00014694  00000+0 -53204-3 0   780
2 59513  43.0029 224.0583 0001854 269.3354 104.5113 15.27603116    15
STARLINK-31669          
1 59515C 24073E   26078.19909722 -.00001326  00000+0 -48028-4 0   780
2 59515  42.9992 264.0767 0001441 268.3754  60.2702 15.27574690    13
STARLINK-31671          
1 59516C 24073F   26078.19840278 -.00000646  00000+0 -23398-4 0   788
2 59516  43.0025 264.5508 0001623 271.8261 214.9046 15.27575642    12
STARLINK-31674          
1 59517C 24073G   26078.19979167 -.00000854  00000+0 -30936-4 0   786
2 59517  42.9998 264.2237 0001626 270.5133 358.2921 15.27573139    16
STARLINK-31679          
1 59519C 24073J   26078.19631944 -.00002321  00000+0 -84028-4 0   788
2 59519  43.0026 253.7570 0001535 271.4663  19.6204 15.27601321    19
STARLINK-31370          
1 59520C 24073K   26078.17965278  .00000858  00000+0  31081-4 0   780
2 59520  43.0026 264.6274 0001603 268.2556 129.3905 15.27571518    15
STARLINK-31404          
1 59521C 24073L   26078.19909722  .00000189  00000+0  68506-5 0   785
2 59521  43.0014 264.6495 0001669 267.1319 180.9657 15.27576962    10
STARLINK-31453          
1 59522C 24073M   26078.19423611 -.00002061  00000+0 -74659-4 0   782
2 59522  43.0002 246.5647 0001478 268.6316   6.0327 15.27581175    11
STARLINK-31476          
1 59523C 24073N   26078.17826389 -.00006631  00000+0 -24014-3 0   786
2 59523  43.0032 264.5808 0001646 268.0592 143.1615 15.27590952    17
STARLINK-31538          
1 59525C 24073Q   26078.19493056 -.00005333  00000+0 -19314-3 0   786
2 59525  42.9990 264.1483 0001529 267.1850  17.2990 15.27589305    19
STARLINK-31564          
1 59526C 24073R   26078.19562500  .00000558  00000+0  20206-4 0   783
2 59526  42.9992 264.0435 0001436 270.9678  59.7987 15.27567726    15
STARLINK-31452          
1 59527C 24073S   26078.19979167 -.00000560  00000+0 -20286-4 0   788
2 59527  43.0020 264.5953 0001588 268.2483 204.9012 15.27575988    14
STARLINK-31513          
1 59529C 24073U   26078.19979167 -.00009306  00000+0 -33702-3 0   783
2 59529  43.0008 261.0702 0001670 265.5537 219.1172 15.27592582    12
STARLINK-31392          
1 59530C 24073V   26078.19423611  .00002347  00000+0  85067-4 0   781
2 59530  43.0023 264.3849 0001469 263.2643 278.4173 15.27558279    12
STARLINK-31619          
1 59531C 24073W   26078.19979167 -.00005901  00000+0 -21369-3 0   789
2 59531  42.9993 264.1710 0001531 263.8426  26.1678 15.27593385    12
STARLINK-31509          
1 59533C 24073Y   26078.19493056  .00000514  00000+0  18615-4 0   783
2 59533  43.0009 264.7369 0001933 279.6859 124.1319 15.27593394    12
STARLINK-31734          
1 59534C 24074A   26078.20048611 -.00048727  00000+0 -17660-2 0   787
2 59534  43.0002 278.9189 0001703 262.5916 139.9545 15.27605464    10
STARLINK-31738          
1 59535C 24074B   26078.19979167  .00000498  00000+0  18054-4 0   786
2 59535  42.9998 285.9885 0001384 270.2339  34.7742 15.27578526    13
STARLINK-31721          
1 59536C 24074C   26078.19631944 -.00000091  00000+0 -32851-5 0   788
2 59536  42.9997 289.5795 0001325 269.1645   5.1547 15.27582354    14
STARLINK-31737          
1 59537C 24074D   26078.19493056  .00002813  00000+0  10197-3 0   788
2 59537  43.0011 289.7722 0001205 262.8412 285.9858 15.27545299    15
STARLINK-31725          
1 59538C 24074E   26078.20187500  .00316860  00000+0  36037-2 0   785
2 59538  42.9932 268.7860 0018945 297.4645 226.2383 15.60838758    10
STARLINK-31539          
1 59539C 24074F   26078.20118056  .00002085  00000+0  75508-4 0   785
2 59539  43.0026 289.8891 0001542 268.3653 251.2030 15.27579079    14
STARLINK-31397          
1 59540C 24074G   26078.19979167  .00001616  00000+0  58553-4 0   783
2 59540  43.0020 290.0861 0001614 265.1955 168.9206 15.27573131    13
STARLINK-31481          
1 59541C 24074H   26078.19909722  .00007517  00000+0  27230-3 0   787
2 59541  43.0002 289.3794 0001518 266.5140 100.8174 15.27564643    11
STARLINK-31540          
1 59542C 24074J   26078.19909722  .00001744  00000+0  63162-4 0   789
2 59542  42.9996 289.6129 0001409 267.9491   0.4431 15.27572608    11
STARLINK-31574          
1 59543C 24074K   26078.19562500  .00002473  00000+0  89595-4 0   787
2 59543  43.0026 289.9713 0001505 271.4146 196.3563 15.27571732    12
STARLINK-31556          
1 59544C 24074L   26078.17826389 -.00013643  00000+0 -49471-3 0   785
2 59544  43.0028 290.1074 0001707 265.1895  92.8526 15.27554412    19
STARLINK-31582          
1 59545C 24074M   26078.19493056  .00001862  00000+0  67446-4 0   780
2 59545  43.0010 290.1622 0001508 264.9416 121.1874 15.27581903    12
STARLINK-31519          
1 59546C 24074N   26078.19493056  .00001864  00000+0  67525-4 0   781
2 59546  43.0002 289.4851 0001433 264.4918  44.6440 15.27577493    15
STARLINK-31736          
1 59547C 24074P   26078.19840278  .00001828  00000+0  66265-4 0   784
2 59547  43.0020 282.8706 0001495 267.5177 281.0879 15.27542255    12
STARLINK-31675          
1 59548C 24074Q   26078.19631944  .00001184  00000+0  42881-4 0   786
2 59548  43.0000 289.6771 0001555 264.0394 327.8277 15.27575973    12
STARLINK-31722          
1 59549C 24074R   26078.19979167  .00004322  00000+0  15658-3 0   787
2 59549  43.0001 289.4075 0001739 262.6161  94.4213 15.27566268    13
STARLINK-31741          
1 59550C 24074S   26078.19979167 -.00000460  00000+0 -16666-4 0   781
2 59550  42.9999 289.5071 0001540 273.2405  41.4093 15.27585323    16
STARLINK-31699          
1 59551C 24074T   26078.19770833  .00001513  00000+0  54809-4 0   780
2 59551  43.0003 289.7023 0001448 265.2915 320.0750 15.27581195    17
STARLINK-31750          
1 59552C 24074U   26078.19909722  .00001714  00000+0  62093-4 0   789
2 59552  43.0023 289.8471 0001272 271.5205 257.8219 15.27570394    11
STARLINK-31723          
1 59553C 24074V   26078.19770833  .00003623  00000+0  13128-3 0   784
2 59553  43.0019 289.8047 0001407 278.4994 264.4289 15.27560595    10
STARLINK-31724          
1 59554C 24074W   26078.19840278 -.00004784  00000+0 -17330-3 0   786
2 59554  42.9998 253.7885 0001405 268.1939 267.3822 15.27579136    14
STARLINK-31730          
1 59555C 24074X   26078.19562500  .00003208  00000+0  11622-3 0   782
2 59555  43.0007 290.2074 0001468 269.3860  99.3594 15.27565729    11
STARLINK-31718          
1 59556C 24074Y   26078.20118056  .00002756  00000+0  99826-4 0   788
2 59556  43.0024 290.0232 0001580 263.2602 199.7437 15.27569113    19
STARLINK-31747          
1 59564C 24076A   26078.19770833  .00007657  00000+0  27729-3 0   781
2 59564  43.0022 304.7261 0001845 269.1011 290.5025 15.27576261    19
STARLINK-31388          
1 59565C 24076B   26078.19562500  .00013263  00000+0  48055-3 0   787
2 59565  43.0018 315.5570 0001468 264.7088 107.4987 15.27553180    12
STARLINK-31332          
1 59566C 24076C   26078.19493056  .00010455  00000+0  37873-3 0   783
2 59566  43.0010 315.0976 0001201 269.5790 282.7431 15.27564104    17
STARLINK-31689          
1 59567C 24076D   26078.19840278  .00011453  00000+0  41489-3 0   783
2 59567  43.0012 311.9878 0001448 270.4815 149.7209 15.27562289    15
STARLINK-31471          
1 59568C 24076E   26078.19493056  .00011649  00000+0  42239-3 0   783
2 59568  43.0021 315.1813 0001639 254.3436 262.7383 15.27530360    17
STARLINK-31470          
1 59569C 24076F   26078.19909722  .00011410  00000+0  41332-3 0   785
2 59569  43.0018 311.9002 0001381 268.4588 190.9387 15.27562398    18
STARLINK-31587          
1 59570C 24076G   26078.19979167  .00013075  00000+0  47366-3 0   789
2 59570  43.0023 315.4648 0001501 270.9534 145.4170 15.27559803    16
STARLINK-31606          
1 59571C 24076H   26078.19840278  .00010280  00000+0  37210-3 0   782
2 59571  43.0014 314.8943 0001838 270.7168  18.4774 15.27588599    15
STARLINK-31666          
1 59572C 24076J   26078.19840278  .00001539  00000+0  55759-4 0   789
2 59572  43.0018 308.3276 0001536 269.2607 219.0593 15.27570866    19
STARLINK-31683          
1 59573C 24076K   26078.19423611  .00011823  00000+0  42839-3 0   789
2 59573  43.0021 315.2015 0001413 262.6582 243.3687 15.27554093    13
STARLINK-31751          
1 59574C 24076L   26078.19631944  .00012958  00000+0  46934-3 0   780
2 59574  43.0009 315.6457 0001435 269.3344  64.2212 15.27564600    17
STARLINK-31510          
1 59575C 24076M   26078.19770833  .00011459  00000+0  41537-3 0   781
2 59575  43.0018 311.9457 0001499 266.7509 170.9128 15.27542789    16
STARLINK-31663          
1 59576C 24076N   26078.20048611  .00013119  00000+0  47515-3 0   783
2 59576  43.0014 315.5587 0001128 278.0720  99.6629 15.27566458    19
STARLINK-31692          
1 59577C 24076P   26078.20048611  .00002624  00000+0  95116-4 0   784
2 59577  43.0036 315.3630 0001390 266.2765 182.3255 15.27551767    12
STARLINK-31685          
1 59578C 24076Q   26078.20118056 -.00065955  00000+0 -23895-2 0   787
2 59578  43.0009 314.9199 0001372 264.0710  19.3152 15.27635873    10
STARLINK-31686          
1 59579C 24076R   26078.20048611  .00010890  00000+0  39442-3 0   789
2 59579  43.0008 314.9777 0001457 262.5885 355.6943 15.27570280    16
STARLINK-31668          
1 59580C 24076S   26078.19701389  .00012055  00000+0  43674-3 0   784
2 59580  43.0008 314.8508 0001633 261.1124  41.7495 15.27557920    17
STARLINK-31690          
1 59581C 24076T   26078.19909722  .00010451  00000+0  37856-3 0   789
2 59581  43.0017 315.1216 0001334 266.9190 287.1232 15.27565262    15
STARLINK-31701          
1 59582C 24076U   26078.19631944  .00012554  00000+0  45448-3 0   780
2 59582  43.0029 315.3409 0001339 278.4504 175.2753 15.27581570    12
STARLINK-31697          
1 59583C 24076V   26078.19770833  .00010509  00000+0  38069-3 0   781
2 59583  42.9989 315.1080 0001453 269.5028 283.9825 15.27562697    14
